COMMENT,ORIGINATOR,NORAD_CAT_ID,OBJECT_NAME,OBJECT_TYPE,CLASSIFICATION_TYPE,INTLDES,EPOCH,EPOCH_MICROSECONDS,MEAN_MOTION,ECCENTRICITY,INCLINATION,RA_OF_ASC_NODE,ARG_OF_PERICENTER,MEAN_ANOMALY,EPHEMERIS_TYPE,ELEMENT_SET_NO,REV_AT_EPOCH,BSTAR,MEAN_MOTION_DOT,MEAN_MOTION_DDOT,FILE,TLE_LINE0,TLE_LINE1,TLE_LINE2,OBJECT_ID,OBJECT_NUMBER,SEMIMAJOR_AXIS,PERIOD,APOGEE,PERIGEE,DECAYED,date
GENERATED VIA SPACETRACK.ORG API,18 SPCS,48886,SPACEBEE-102,PAYLOAD,U,21059H,2023/2/12 7:31,529472,15.22297739,0.000756,97.5774,177.9665,349.7348,10.3732,0,999,9032,0.0016438,0.0003798,0,3787692,0 SPACEBEE-102,1 48886U 21059H   23043.31373298  .00037980  00000-0  16438-2 0  9990,2 48886  97.5774 177.9665 0007560 349.7348  10.3732 15.22297739 90329,2021-059H,48886,6877.049,94.594,504.113,493.715,0,2023/4/3
GENERATED VIA SPACETRACK.ORG API,18 SPCS,48886,SPACEBEE-102,PAYLOAD,U,21059H,2023/2/13 7:11,963712,15.22374989,0.0007505,97.5773,178.9603,346.8391,13.2648,0,999,9047,0.0016247,0.00037621,0,3788948,0 SPACEBEE-102,1 48886U 21059H   23044.29968708  .00037621  00000-0  16247-2 0  9994,2 48886  97.5773 178.9603 0007505 346.8391  13.2648 15.22374989 90473,2021-059H,48886,6876.816,94.589,503.842,493.52,0,2023/4/4
GENERATED VIA SPACETRACK.ORG API,18 SPCS,48886,SPACEBEE-102,PAYLOAD,U,21059H,2023/2/13 15:04,518464,15.22399308,0.0007479,97.5773,179.2916,346.187,13.916,0,999,9052,0.001564,0.00036232,0,3789366,0 SPACEBEE-102,1 48886U 21059H   23044.62832776  .00036232  00000-0  15640-2 0  9999,2 48886  97.5773 179.2916 0007479 346.1870  13.9160 15.22399308 90523,2021-059H,48886,6876.743,94.588,503.751,493.465,0,2023/4/5
GENERATED VIA SPACETRACK.ORG API,18 SPCS,48886,SPACEBEE-102,PAYLOAD,U,21059H,2023/2/14 6:51,298272,15.22447593,0.0007472,97.5771,179.9544,343.756,16.3435,0,999,9062,0.0016147,0.00037468,0,3791349,0 SPACEBEE-102,1 48886U 21059H   23045.28559373  .00037468  00000-0  16147-2 0  9996,2 48886  97.5771 179.9544 0007472 343.7560  16.3435 15.22447593 90620,2021-059H,48886,6876.598,94.585,503.601,493.324,0,2023/4/6
GENERATED VIA SPACETRACK.ORG API,18 SPCS,48886,SPACEBEE-102,PAYLOAD,U,21059H,2023/2/14 14:44,535424,15.2247062,0.0007461,97.5769,180.2858,342.5701,17.5278,0,999,9067,0.0015995,0.00037138,0,3791803,0 SPACEBEE-102,1 48886U 21059H   23045.61421916  .00037138  00000-0  15995-2 0  9998,2 48886  97.5769 180.2858 0007461 342.5701  17.5278 15.22470620 90672,2021-059H,48886,6876.528,94.583,503.524,493.263,0,2023/4/7
GENERATED VIA SPACETRACK.ORG API,18 SPCS,48886,SPACEBEE-102,PAYLOAD,U,21059H,2023/2/14 14:44,535424,15.2247062,0.0007461,97.5769,180.2858,342.5701,17.5278,0,999,9067,0.0015995,0.00037138,0,3792084,0 SPACEBEE-102,1 48886U 21059H   23045.61421916  .00037138  00000-0  15995-2 0  9998,2 48886  97.5769 180.2858 0007461 342.5701  17.5278 15.22470620 90672,2021-059H,48886,6876.528,94.583,503.524,493.263,0,2023/4/8
GENERATED VIA SPACETRACK.ORG API,18 SPCS,48886,SPACEBEE-102,PAYLOAD,U,21059H,2023/2/15 14:24,560704,15.22549432,0.0007499,97.5766,181.2799,338.3668,21.7251,0,999,9082,0.0019858,0.00046289,0,3793706,0 SPACEBEE-102,1 48886U 21059H   23046.60006436  .00046289  00000-0  19858-2 0  9993,2 48886  97.5766 181.2799 0007499 338.3668  21.7251 15.22549432 90823,2021-059H,48886,6876.291,94.578,503.312,492.999,0,2023/4/9
GENERATED VIA SPACETRACK.ORG API,18 SPCS,48886,SPACEBEE-102,PAYLOAD,U,21059H,2023/2/15 20:42,644992,15.22571709,0.0007515,97.5766,181.545,337.2935,22.7967,0,999,9086,0.0019256,0.00044905,0,3794516,0 SPACEBEE-102,1 48886U 21059H   23046.86294728  .00044905  00000-0  19256-2 0  9999,2 48886  97.5766 181.5450 0007515 337.2935  22.7967 15.22571709 90865,2021-059H,48886,6876.224,94.577,503.256,492.921,0,2023/4/10
GENERATED VIA SPACETRACK.ORG API,18 SPCS,48886,SPACEBEE-102,PAYLOAD,U,21059H,2023/2/15 20:42,644992,15.22571709,0.0007515,97.5766,181.545,337.2935,22.7967,0,999,9086,0.0019256,0.00044905,0,3795153,0 SPACEBEE-102,1 48886U 21059H   23046.86294728  .00044905  00000-0  19256-2 0  9999,2 48886  97.5766 181.5450 0007515 337.2935  22.7967 15.22571709 90865,2021-059H,48886,6876.224,94.577,503.256,492.921,0,2023/4/11
GENERATED VIA SPACETRACK.ORG API,18 SPCS,48886,SPACEBEE-102,PAYLOAD,U,21059H,2023/2/16 7:45,654304,15.22612838,0.0007526,97.5765,182.0094,335.5142,24.5736,0,999,9093,0.001882,0.00043934,0,3798293,0 SPACEBEE-102,1 48886U 21059H   23047.32298211  .00043934  00000-0  18820-2 0  9999,2 48886  97.5765 182.0094 0007526 335.5142  24.5736 15.22612838 90938,2021-059H,48886,6876.1,94.574,503.14,492.79,0,2023/4/12
GENERATED VIA SPACETRACK.ORG API,18 SPCS,48886,SPACEBEE-102,PAYLOAD,U,21059H,2023/2/16 21:56,374944,15.22665354,0.0007476,97.5767,182.606,333.4712,26.6141,0,999,9102,0.0018071,0.00042238,0,3798953,0 SPACEBEE-102,1 48886U 21059H   23047.91443721  .00042238  00000-0  18071-2 0  9996,2 48886  97.5767 182.6060 0007476 333.4712  26.6141 15.22665354 91028,2021-059H,48886,6875.942,94.571,502.947,492.666,0,2023/4/13
GENERATED VIA SPACETRACK.ORG API,18 SPCS,48886,SPACEBEE-102,PAYLOAD,U,21059H,2023/2/16 21:56,374944,15.22665354,0.0007476,97.5767,182.606,333.4712,26.6141,0,999,9102,0.0018071,0.00042238,0,3799178,0 SPACEBEE-102,1 48886U 21059H   23047.91443721  .00042238  00000-0  18071-2 0  9996,2 48886  97.5767 182.6060 0007476 333.4712  26.6141 15.22665354 91028,2021-059H,48886,6875.942,94.571,502.947,492.666,0,2023/4/14
GENERATED VIA SPACETRACK.ORG API,18 SPCS,48886,SPACEBEE-102,PAYLOAD,U,21059H,2023/2/17 8:59,86016,15.22696183,0.0007473,97.5769,183.0698,332.1023,27.9812,0,999,9109,0.0014276,0.00033343,0,3802730,0 SPACEBEE-102,1 48886U 21059H   23048.37444544  .00033343  00000-0  14276-2 0  9991,2 48886  97.5769 183.0698 0007473 332.1023  27.9812 15.22696183 91090,2021-059H,48886,6875.849,94.569,502.852,492.576,0,2023/4/15
GENERATED VIA SPACETRACK.ORG API,18 SPCS,48886,SPACEBEE-102,PAYLOAD,U,21059H,2023/2/17 15:17,986112,15.22713074,0.0007466,97.5771,183.335,331.1233,28.9589,0,999,9113,0.0013466,0.00031455,0,3803229,0 SPACEBEE-102,1 48886U 21059H   23048.63730308  .00031455  00000-0  13466-2 0  9998,2 48886  97.5771 183.3350 0007466 331.1233  28.9589 15.22713074 91131,2021-059H,48886,6875.798,94.568,502.797,492.53,0,2023/4/16
GENERATED VIA SPACETRACK.ORG API,18 SPCS,48886,SPACEBEE-102,PAYLOAD,U,21059H,2023/2/17 20:01,9984,15.22724559,0.0007466,97.5771,183.5339,330.4883,29.5931,0,999,9116,0.0012127,0.00028317,0,3804075,0 SPACEBEE-102,1 48886U 21059H   23048.83444456  .00028317  00000-0  12127-2 0  9992,2 48886  97.5771 183.5339 0007466 330.4883  29.5931 15.22724559 91164,2021-059H,48886,6875.764,94.567,502.762,492.495,0,2023/4/17
GENERATED VIA SPACETRACK.ORG API,18 SPCS,48886,SPACEBEE-102,PAYLOAD,U,21059H,2023/2/18 14:57,856992,15.22768794,0.0007409,97.5775,184.3294,327.8495,32.2288,0,999,9128,0.0011698,0.00027345,0,3807124,0 SPACEBEE-102,1 48886U 21059H   23049.62299603  .00027345  00000-0  11698-2 0  9994,2 48886  97.5775 184.3294 0007409 327.8495  32.2288 15.22768794 91281,2021-059H,48886,6875.63,94.565,502.59,492.401,0,2023/4/18
GENERATED VIA SPACETRACK.ORG API,18 SPCS,48886,SPACEBEE-102,PAYLOAD,U,21059H,2023/2/18 21:15,725472,15.22782087,0.000743,97.5777,184.5946,326.6317,33.445,0,999,9132,0.0010753,0.00025132,0,3809571,0 SPACEBEE-102,1 48886U 21059H   23049.88584173  .00025132  00000-0  10753-2 0  9994,2 48886  97.5777 184.5946 0007430 326.6317  33.4450 15.22782087 91323,2021-059H,48886,6875.59,94.564,502.564,492.347,0,2023/4/19
GENERATED VIA SPACETRACK.ORG API,18 SPCS,48886,SPACEBEE-102,PAYLOAD,U,21059H,2023/2/19 14:36,799776,15.22818367,0.0007456,97.5778,185.3236,323.6597,36.4132,0,999,9143,0.0010439,0.0002442,0,3811610,0 SPACEBEE-102,1 48886U 21059H   23050.60865509  .00024420  00000-0  10439-2 0  9991,2 48886  97.5778 185.3236 0007456 323.6597  36.4132 15.22818367 91433,2021-059H,48886,6875.481,94.562,502.473,492.22,0,2023/4/20
GENERATED VIA SPACETRACK.ORG API,18 SPCS,48886,SPACEBEE-102,PAYLOAD,U,21059H,2023/2/20 7:57,336160,15.2285791,0.0007525,97.5781,186.053,320.8302,39.2389,0,999,9154,0.0011396,0.00026706,0,3814230,0 SPACEBEE-102,1 48886U 21059H   23051.33145065  .00026706  00000-0  11396-2 0  9992,2 48886  97.5781 186.0530 0007525 320.8302  39.2389 15.22857910 91546,2021-059H,48886,6875.362,94.559,502.401,492.054,0,2023/4/21
GENERATED VIA SPACETRACK.ORG API,18 SPCS,48886,SPACEBEE-102,PAYLOAD,U,21059H,2023/2/20 7:57,336160,15.2285791,0.0007525,97.5781,186.053,320.8302,39.2389,0,999,9154,0.0011396,0.00026706,0,3815761,0 SPACEBEE-102,1 48886U 21059H   23051.33145065  .00026706  00000-0  11396-2 0  9992,2 48886  97.5781 186.0530 0007525 320.8302  39.2389 15.22857910 91546,2021-059H,48886,6875.362,94.559,502.401,492.054,0,2023/4/22
GENERATED VIA SPACETRACK.ORG API,18 SPCS,48886,SPACEBEE-102,PAYLOAD,U,21059H,2023/2/21 7:36,213312,15.22914048,0.0007525,97.5787,187.0475,317.5583,42.5071,0,999,9169,0.001246,0.00029264,0,3819803,0 SPACEBEE-102,1 48886U 21059H   23052.31705108  .00029264  00000-0  12460-2 0  9996,2 48886  97.5787 187.0475 0007525 317.5583  42.5071 15.22914048 91692,2021-059H,48886,6875.193,94.556,502.232,491.885,0,2023/4/23
GENERATED VIA SPACETRACK.ORG API,18 SPCS,48886,SPACEBEE-102,PAYLOAD,U,21059H,2023/2/21 21:48,105952,15.22952352,0.0007442,97.5789,187.6437,315.4337,44.63,0,999,9178,0.001296,0.0003048,0,3821329,0 SPACEBEE-102,1 48886U 21059H   23052.90839243  .00030480  00000-0  12960-2 0  9996,2 48886  97.5789 187.6437 0007442 315.4337  44.6300 15.22952352 91788,2021-059H,48886,6875.078,94.553,502.059,491.827,0,2023/4/24
GENERATED VIA SPACETRACK.ORG API,18 SPCS,48886,SPACEBEE-102,PAYLOAD,U,21059H,2023/2/21 21:48,105952,15.22952352,0.0007442,97.5789,187.6437,315.4337,44.63,0,999,9178,0.001296,0.0003048,0,3821839,0 SPACEBEE-102,1 48886U 21059H   23052.90839243  .00030480  00000-0  12960-2 0  9996,2 48886  97.5789 187.6437 0007442 315.4337  44.6300 15.22952352 91788,2021-059H,48886,6875.078,94.553,502.059,491.827,0,2023/4/25
